[{"OBJECT_NAME":"STARLINK-3631","OBJECT_ID":"2022-017Y","EPOCH":"2026-03-09T23:21:25.113312","MEAN_MOTION":15.08823499,"ECCENTRICITY":0.00014429,"INCLINATION":53.2201,"RA_OF_ASC_NODE":347.8441,"ARG_OF_PERICENTER":107.023,"MEAN_ANOMALY":253.092,"EPHEMERIS_TYPE":0,"CLASSIFICATION_TYPE":"U","NORAD_CAT_ID":51790,"ELEMENT_SET_NO":999,"REV_AT_EPOCH":22401,"BSTAR":0.00023783046,"MEAN_MOTION_DOT":3.497e-5,"MEAN_MOTION_DDOT":0},{"OBJECT_NAME":"PSLV DEB","OBJECT_ID":"2001-049PF","EPOCH":"2026-02-25T09:35:51.227808","MEAN_MOTION":15.03011877,"ECCENTRICITY":0.00263657,"INCLINATION":98.0083,"RA_OF_ASC_NODE":118.9106,"ARG_OF_PERICENTER":265.6966,"MEAN_ANOMALY":94.1245,"EPHEMERIS_TYPE":0,"CLASSIFICATION_TYPE":"U","NORAD_CAT_ID":28853,"ELEMENT_SET_NO":999,"REV_AT_EPOCH":68879,"BSTAR":0.00037786861,"MEAN_MOTION_DOT":5.057e-5,"MEAN_MOTION_DDOT":0}]
